NORAD_CAT_ID,OBJECT_NAME,OBJECT_TYPE,EPOCH,MEAN_MOTION,ECCENTRICITY,INCLINATION,RA_OF_ASC_NODE,ARG_OF_PERICENTER,MEAN_ANOMALY,BSTAR,MEAN_MOTION_DOT,MEAN_MOTION_DDOT,TLE_LINE0,TLE_LINE1,TLE_LINE2,SEMIMAJOR_AXIS,PERIOD,APOGEE,PERIGEE,DECAYED
54170.0,STARLINK-5155,PAYLOAD,2023-07-29 17:52:44,15.08853238,9.57e-05,53.2173,326.5958,70.7244,289.3851,0.00077094,0.00012007,0.0,0 STARLINK-5155,1 54170U 22141P   23210.74495948  .00012007  00000-0  77094-3 0  9995,2 54170  53.2173 326.5958 0000957  70.7244 289.3851 15.08853238 41838,6917.84,95.437,540.367,539.043,0.0
54170.0,STARLINK-5155,PAYLOAD,2023-07-30 09:46:36,15.08839628,9.41e-05,53.2169,323.6224,83.1158,276.9942,0.00013384,1.843e-05,0.0,0 STARLINK-5155,1 54170U 22141P   23211.40736236  .00001843  00000-0  13384-3 0  9995,2 54170  53.2169 323.6224 0000941  83.1158 276.9942 15.08839628 41933,6917.882,95.438,540.397,539.096,0.0
54170.0,STARLINK-5155,PAYLOAD,2023-07-30 16:08:08,15.08852777,9.33e-05,53.2174,322.4335,81.4795,278.6303,0.00052219,8.035e-05,0.0,0 STARLINK-5155,1 54170U 22141P   23211.67231945  .00008035  00000-0  52219-3 0  9991,2 54170  53.2174 322.4335 0000933  81.4795 278.6303 15.08852777 41972,6917.841,95.437,540.352,539.061,0.0
54170.0,STARLINK-5155,PAYLOAD,2023-07-31 00:05:04,15.08842584,9.23e-05,53.2175,320.947,81.7015,278.4082,0.0001732,2.47e-05,0.0,0 STARLINK-5155,1 54170U 22141P   23212.00352104  .00002470  00000-0  17320-3 0  9991,2 54170  53.2175 320.9470 0000923  81.7015 278.4082 15.08842584 42027,6917.872,95.437,540.376,539.099,0.0
54170.0,STARLINK-5155,PAYLOAD,2023-07-31 15:58:55,15.08854087,9.26e-05,53.2175,317.9735,90.9616,269.1483,0.00029444,4.403e-05,0.0,0 STARLINK-5155,1 54170U 22141P   23212.66591560  .00004403  00000-0  29444-3 0  9992,2 54170  53.2175 317.9735 0000926  90.9616 269.1483 15.08854087 42123,6917.837,95.437,540.343,539.062,0.0
54170.0,STARLINK-5155,PAYLOAD,2023-08-01 11:03:33,15.08835283,0.0001394,53.2184,314.407,107.0443,253.0702,-8.2183e-05,-1.595e-05,0.0,0 STARLINK-5155,1 54170U 22141P   23213.46080208 -.00001595  00000-0 -82183-4 0  9994,2 54170  53.2184 314.4070 0001394 107.0443 253.0702 15.08835283 42241,6917.895,95.438,540.724,538.795,0.0
54170.0,STARLINK-5155,PAYLOAD,2023-08-01 15:49:42,15.08840576,0.0001119,53.2177,313.5124,80.3675,279.7444,5.7892e-05,6.34e-06,0.0,0 STARLINK-5155,1 54170U 22141P   23213.65952216  .00000634  00000-0  57892-4 0  9992,2 54170  53.2177 313.5124 0001119  80.3675 279.7444 15.08840576 42270,6917.879,95.438,540.518,538.97,0.0
54170.0,STARLINK-5155,PAYLOAD,2023-08-03 10:45:07,15.08845846,0.0001011,53.2166,305.4841,93.1154,266.9954,0.00017061,2.429e-05,0.0,0 STARLINK-5155,1 54170U 22141P   23215.44800276  .00002429  00000-0  17061-3 0  9996,2 54170  53.2166 305.4841 0001011  93.1154 266.9954 15.08845846 42548,6917.863,95.437,540.427,539.028,0.0
54170.0,STARLINK-5155,PAYLOAD,2023-08-04 10:35:54,15.08844815,0.0001164,53.2164,301.025,68.5411,291.5705,-0.00018394,-3.214e-05,0.0,0 STARLINK-5155,1 54170U 22141P   23216.44160520 -.00003214  00000-0 -18394-3 0  9993,2 54170  53.2164 301.0250 0001164  68.5411 291.5705 15.08844815 42692,6917.866,95.437,540.536,538.925,0.0
54170.0,STARLINK-5155,PAYLOAD,2023-08-04 16:57:26,15.08857294,0.0001003,53.2169,299.8345,71.9141,288.1961,-0.000116,-2.134e-05,0.0,0 STARLINK-5155,1 54170U 22141P   23216.70655952 -.00002134  00000-0 -11600-3 0  9993,2 54170  53.2169 299.8345 0001003  71.9141 288.1961 15.08857294 42732,6917.828,95.436,540.386,538.999,0.0
54170.0,STARLINK-5155,PAYLOAD,2023-08-05 10:26:41,15.08848746,0.0001213,53.2181,296.5625,71.7237,288.3887,7.3249e-05,8.78e-06,0.0,0 STARLINK-5155,1 54170U 22141P   23217.43519981  .00000878  00000-0  73249-4 0  9994,2 54170  53.2181 296.5625 0001213  71.7237 288.3887 15.08848746 42841,6917.854,95.437,540.558,538.88,0.0
54170.0,STARLINK-5155,PAYLOAD,2023-08-05 16:48:13,15.0886179,0.0001001,53.216,295.3748,85.5094,274.6013,0.00037937,5.759e-05,0.0,0 STARLINK-5155,1 54170U 22141P   23217.70015350  .00005759  00000-0  37937-3 0  9991,2 54170  53.2160 295.3748 0001001  85.5094 274.6013 15.08861790 42887,6917.814,95.436,540.371,538.986,0.0
54170.0,STARLINK-5155,PAYLOAD,2023-08-06 11:52:52,15.08830737,0.0001002,53.2158,291.8058,92.4177,267.693,-8.5413e-05,-1.646e-05,0.0,0 STARLINK-5155,1 54170U 22141P   23218.49505009 -.00001646  00000-0 -85413-4 0  9999,2 54170  53.2158 291.8058 0001002  92.4177 267.6930 15.08830737 43001,6917.909,95.438,540.467,539.081,0.0
54170.0,STARLINK-5155,PAYLOAD,2023-08-07 08:32:52,15.08839134,0.0001024,53.2165,287.9379,88.4812,271.6297,-0.00010563,-1.968e-05,0.0,0 STARLINK-5155,1 54170U 22141P   23219.35616875 -.00001968  00000-0 -10563-3 0  9999,2 54170  53.2165 287.9379 0001024  88.4812 271.6297 15.08839134 43131,6917.883,95.438,540.456,539.04,0.0
54170.0,STARLINK-5155,PAYLOAD,2023-08-08 11:34:26,15.08842363,0.0001035,53.2149,282.8842,91.9503,268.1608,0.00026973,4.008e-05,0.0,0 STARLINK-5155,1 54170U 22141P   23220.48225237  .00004008  00000-0  26973-3 0  9991,2 54170  53.2149 282.8842 0001035  91.9503 268.1608 15.08842363 43304,6917.873,95.437,540.454,539.022,0.0
54170.0,STARLINK-5155,PAYLOAD,2023-08-08 21:06:45,15.08835588,9.52e-05,53.2155,281.1,93.9657,266.1444,0.00011744,1.582e-05,0.0,0 STARLINK-5155,1 54170U 22141P   23220.87969623  .00001582  00000-0  11744-3 0  9992,2 54170  53.2155 281.1000 0000952  93.9657 266.1444 15.08835588 43361,6917.894,95.438,540.417,539.1,0.0
54170.0,STARLINK-5155,PAYLOAD,2023-08-10 03:19:05,15.08841737,0.0001024,53.2153,275.4503,87.1634,272.9476,0.0001729,2.465e-05,0.0,0 STARLINK-5155,1 54170U 22141P   23222.13825599  .00002465  00000-0  17290-3 0  9999,2 54170  53.2153 275.4503 0001024  87.1634 272.9476 15.08841737 43558,6917.875,95.437,540.448,539.032,0.0
54170.0,STARLINK-5155,PAYLOAD,2023-08-11 09:31:24,15.08844119,0.0001025,53.2154,269.8011,85.7847,274.3262,0.00015632,2.201e-05,0.0,0 STARLINK-5155,1 54170U 22141P   23223.39681483  .00002201  00000-0  15632-3 0  9996,2 54170  53.2154 269.8011 0001025  85.7847 274.3262 15.08844119 43748,6917.868,95.437,540.442,539.024,0.0
54170.0,STARLINK-5155,PAYLOAD,2023-08-12 09:22:12,15.08840562,0.0001088,53.2158,265.3394,91.8715,268.2401,1.3462e-05,-7.4e-07,0.0,0 STARLINK-5155,1 54170U 22141P   23224.39041724 -.00000074  00000-0  13462-4 0  9992,2 54170  53.2158 265.3394 0001088  91.8715 268.2401 15.08840562 43899,6917.879,95.438,540.496,538.991,0.0
54170.0,STARLINK-5155,PAYLOAD,2023-08-13 13:59:08,15.08843029,0.0001214,53.2163,259.9859,77.8796,282.2332,9.644e-05,1.247e-05,0.0,0 STARLINK-5155,1 54170U 22141P   23225.58273735  .00001247  00000-0  96440-4 0  9992,2 54170  53.2163 259.9859 0001214  77.8796 282.2332 15.08843029 44075,6917.871,95.437,540.576,538.896,0.0
54170.0,STARLINK-5155,PAYLOAD,2023-08-14 18:36:05,15.08837739,0.0001325,53.2151,254.633,79.6108,280.5034,1.1758e-05,-1.01e-06,0.0,0 STARLINK-5155,1 54170U 22141P   23226.77505855 -.00000101  00000-0  11758-4 0  9993,2 54170  53.2151 254.6330 0001325  79.6108 280.5034 15.08837739 44259,6917.887,95.438,540.669,538.836,0.0
54170.0,STARLINK-5155,PAYLOAD,2023-08-16 00:48:24,15.08839276,0.0001101,53.2148,248.9838,82.9186,277.1931,3.5246e-05,2.73e-06,0.0,0 STARLINK-5155,1 54170U 22141P   23228.03361731  .00000273  00000-0  35246-4 0  9994,2 54170  53.2148 248.9838 0001101  82.9186 277.1931 15.08839276 44446,6917.883,95.438,540.509,538.986,0.0
54170.0,STARLINK-5155,PAYLOAD,2023-08-17 08:36:07,15.08842992,0.0001184,53.2149,243.0359,87.0756,273.0372,0.00012142,1.645e-05,0.0,0 STARLINK-5155,1 54170U 22141P   23229.35841670  .00001645  00000-0  12142-3 0  9998,2 54170  53.2149 243.0359 0001184  87.0756 273.0372 15.08842992 44646,6917.871,95.437,540.555,538.917,0.0
54170.0,STARLINK-5155,PAYLOAD,2023-08-18 00:29:59,15.0883547,0.0001199,53.2142,240.0614,83.0875,277.0253,4.8652e-05,4.86e-06,0.0,0 STARLINK-5155,1 54170U 22141P   23230.02082201  .00000486  00000-0  48652-4 0  9999,2 54170  53.2142 240.0614 0001199  83.0875 277.0253 15.08835470 44740,6917.894,95.438,540.589,538.93,0.0
54170.0,STARLINK-5155,PAYLOAD,2023-08-19 06:42:18,15.08844624,0.0001207,53.2149,234.4119,79.9831,280.1297,0.00015651,2.204e-05,0.0,0 STARLINK-5155,1 54170U 22141P   23231.27938059  .00002204  00000-0  15651-3 0  9990,2 54170  53.2149 234.4119 0001207  79.9831 280.1297 15.08844624 44935,6917.866,95.437,540.566,538.896,0.0
54170.0,STARLINK-5155,PAYLOAD,2023-08-20 03:22:19,15.08838249,0.0001233,53.215,230.5465,80.5455,279.5676,0.00012098,1.638e-05,0.0,0 STARLINK-5155,1 54170U 22141P   23232.14050497  .00001638  00000-0  12098-3 0  9990,2 54170  53.2150 230.5465 0001233  80.5455 279.5676 15.08838249 45061,6917.886,95.438,540.604,538.898,0.0
54170.0,STARLINK-5155,PAYLOAD,2023-08-21 06:23:52,15.08843736,0.0001313,53.2165,225.4907,89.6738,270.4404,5.954e-05,6.6e-06,0.0,0 STARLINK-5155,1 54170U 22141P   23233.26658163  .00000660  00000-0  59540-4 0  9996,2 54170  53.2165 225.4907 0001313  89.6738 270.4404 15.08843736 45239,6917.869,95.437,540.642,538.826,0.0
54170.0,STARLINK-5155,PAYLOAD,2023-08-21 23:53:07,15.08830638,0.0001253,53.2169,222.219,88.9688,271.1448,2.0949e-05,4.5e-07,0.0,0 STARLINK-5155,1 54170U 22141P   23233.99523136  .00000045  00000-0  20949-4 0  9995,2 54170  53.2169 222.2190 0001253  88.9688 271.1448 15.08830638 45346,6917.909,95.438,540.641,538.907,0.0
54170.0,STARLINK-5155,PAYLOAD,2023-08-22 07:50:03,15.08839046,0.0001388,53.2172,220.732,92.5227,267.5924,-2.5683e-05,-6.97e-06,0.0,0 STARLINK-5155,1 54170U 22141P   23234.32642813 -.00000697  00000-0 -25683-4 0  9992,2 54170  53.2172 220.7320 0001388  92.5227 267.5924 15.08839046 45392,6917.883,95.438,540.709,538.788,0.0
54170.0,STARLINK-5155,PAYLOAD,2023-08-23 09:16:13,15.08841726,0.0001318,53.2169,215.9746,87.5156,272.5987,5.6809e-05,6.16e-06,0.0,0 STARLINK-5155,1 54170U 22141P   23235.38626711  .00000616  00000-0  56809-4 0  9991,2 54170  53.2169 215.9746 0001318  87.5156 272.5987 15.08841726 45555,6917.875,95.437,540.652,538.828,0.0
